KUIPER-00008            
1 63724U 25088A   25216.67090492  .00004440  00000+0  38659-3 0  9993
2 63724  51.8916 356.3307 0011702  90.6741 269.5570 14.98686685 15505
KUIPER-00009            
1 63725U 25088B   25217.36981210  .00002920  00000+0  18599-3 0  9990
2 63725  51.8844 346.2400 0011548 115.8335 244.3834 15.11814392 15705
KUIPER-00010            
1 63726U 25088C   25217.05348587  .00012508  00000+0  35818-3 0  9997
2 63726  51.8640 344.9811 0009484 104.6834 255.5204 15.36269819 15314
KUIPER-00011            
1 63727U 25088D   25217.34371093  .00015993  00000+0  46176-3 0  9998
2 63727  51.8592 343.8549 0010803 114.2632 245.9483 15.35777205 15490
KUIPER-00012            
1 63728U 25088E   25216.62528957  .00013547  00000+0  39150-3 0  9999
2 63728  51.8581 347.2794 0011067 112.8686 247.3470 15.35891361 15330
KUIPER-00013            
1 63729U 25088F   25217.58335648 -.00987481  00000+0 -63233-1 0  9995
2 63729  51.8921 345.8569 0006863  68.2239  78.6697 15.11112278 15534
KUIPER-00014            
1 63730U 25088G   25217.31050467 -.00026069  00000+0 -14803-2 0  9997
2 63730  51.8803 348.1565 0008083 127.3892 232.7821 15.12155640 15291
KUIPER-00015            
1 63731U 25088H   25216.84806942  .00000356  00000+0  74277-4 0  9994
2 63731  51.9010   0.3319 0011565  84.8900 275.3382 14.81113726 15540
