<?xml version="1.0" encoding="UTF-8"?>
<ndm xmlns:xsi="http://www.w3.org/2001/XMLSchema-instance" xsi:noNamespaceSchemaLocation="https://sanaregistry.org/r/ndmxml_unqualified/ndmxml-2.0.0-master-2.0.xsd">
<omm id="CCSDS_OMM_VERS" version="2.0">
<header><CREATION_DATE/><ORIGINATOR/></header><body><segment><metadata><OBJECT_NAME>KUIPER-00008</OBJECT_NAME><OBJECT_ID>2025-088A</OBJECT_ID><CENTER_NAME>EARTH</CENTER_NAME><REF_FRAME>TEME</REF_FRAME><TIME_SYSTEM>UTC</TIME_SYSTEM><MEAN_ELEMENT_THEORY>SGP4</MEAN_ELEMENT_THEORY></metadata><data><meanElements><EPOCH>2025-08-04T16:06:06.185088</EPOCH><MEAN_MOTION>14.98686685</MEAN_MOTION><ECCENTRICITY>.0011702</ECCENTRICITY><INCLINATION>51.8916</INCLINATION><RA_OF_ASC_NODE>356.3307</RA_OF_ASC_NODE><ARG_OF_PERICENTER>90.6741</ARG_OF_PERICENTER><MEAN_ANOMALY>269.5570</MEAN_ANOMALY></meanElements><tleParameters><EPHEMERIS_TYPE>0</EPHEMERIS_TYPE><CLASSIFICATION_TYPE>U</CLASSIFICATION_TYPE><NORAD_CAT_ID>63724</NORAD_CAT_ID><ELEMENT_SET_NO>999</ELEMENT_SET_NO><REV_AT_EPOCH>1550</REV_AT_EPOCH><BSTAR>.38659E-3</BSTAR><MEAN_MOTION_DOT>.444E-4</MEAN_MOTION_DOT><MEAN_MOTION_DDOT>0</MEAN_MOTION_DDOT></tleParameters></data></segment></body></omm>
<omm id="CCSDS_OMM_VERS" version="2.0">
<header><CREATION_DATE/><ORIGINATOR/></header><body><segment><metadata><OBJECT_NAME>KUIPER-00009</OBJECT_NAME><OBJECT_ID>2025-088B</OBJECT_ID><CENTER_NAME>EARTH</CENTER_NAME><REF_FRAME>TEME</REF_FRAME><TIME_SYSTEM>UTC</TIME_SYSTEM><MEAN_ELEMENT_THEORY>SGP4</MEAN_ELEMENT_THEORY></metadata><data><meanElements><EPOCH>2025-08-05T08:52:31.765440</EPOCH><MEAN_MOTION>15.11814392</MEAN_MOTION><ECCENTRICITY>.0011548</ECCENTRICITY><INCLINATION>51.8844</INCLINATION><RA_OF_ASC_NODE>346.2400</RA_OF_ASC_NODE><ARG_OF_PERICENTER>115.8335</ARG_OF_PERICENTER><MEAN_ANOMALY>244.3834</MEAN_ANOMALY></meanElements><tleParameters><EPHEMERIS_TYPE>0</EPHEMERIS_TYPE><CLASSIFICATION_TYPE>U</CLASSIFICATION_TYPE><NORAD_CAT_ID>63725</NORAD_CAT_ID><ELEMENT_SET_NO>999</ELEMENT_SET_NO><REV_AT_EPOCH>1570</REV_AT_EPOCH><BSTAR>.18599E-3</BSTAR><MEAN_MOTION_DOT>.292E-4</MEAN_MOTION_DOT><MEAN_MOTION_DDOT>0</MEAN_MOTION_DDOT></tleParameters></data></segment></body></omm>
<omm id="CCSDS_OMM_VERS" version="2.0">
<header><CREATION_DATE/><ORIGINATOR/></header><body><segment><metadata><OBJECT_NAME>KUIPER-00010</OBJECT_NAME><OBJECT_ID>2025-088C</OBJECT_ID><CENTER_NAME>EARTH</CENTER_NAME><REF_FRAME>TEME</REF_FRAME><TIME_SYSTEM>UTC</TIME_SYSTEM><MEAN_ELEMENT_THEORY>SGP4</MEAN_ELEMENT_THEORY></metadata><data><meanElements><EPOCH>2025-08-05T01:17:01.179168</EPOCH><MEAN_MOTION>15.36269819</MEAN_MOTION><ECCENTRICITY>.0009484</ECCENTRICITY><INCLINATION>51.8640</INCLINATION><RA_OF_ASC_NODE>344.9811</RA_OF_ASC_NODE><ARG_OF_PERICENTER>104.6834</ARG_OF_PERICENTER><MEAN_ANOMALY>255.5204</MEAN_ANOMALY></meanElements><tleParameters><EPHEMERIS_TYPE>0</EPHEMERIS_TYPE><CLASSIFICATION_TYPE>U</CLASSIFICATION_TYPE><NORAD_CAT_ID>63726</NORAD_CAT_ID><ELEMENT_SET_NO>999</ELEMENT_SET_NO><REV_AT_EPOCH>1531</REV_AT_EPOCH><BSTAR>.35818E-3</BSTAR><MEAN_MOTION_DOT>.12508E-3</MEAN_MOTION_DOT><MEAN_MOTION_DDOT>0</MEAN_MOTION_DDOT></tleParameters></data></segment></body></omm>
<omm id="CCSDS_OMM_VERS" version="2.0">
<header><CREATION_DATE/><ORIGINATOR/></header><body><segment><metadata><OBJECT_NAME>KUIPER-00011</OBJECT_NAME><OBJECT_ID>2025-088D</OBJECT_ID><CENTER_NAME>EARTH</CENTER_NAME><REF_FRAME>TEME</REF_FRAME><TIME_SYSTEM>UTC</TIME_SYSTEM><MEAN_ELEMENT_THEORY>SGP4</MEAN_ELEMENT_THEORY></metadata><data><meanElements><EPOCH>2025-08-05T08:14:56.624352</EPOCH><MEAN_MOTION>15.35777205</MEAN_MOTION><ECCENTRICITY>.0010803</ECCENTRICITY><INCLINATION>51.8592</INCLINATION><RA_OF_ASC_NODE>343.8549</RA_OF_ASC_NODE><ARG_OF_PERICENTER>114.2632</ARG_OF_PERICENTER><MEAN_ANOMALY>245.9483</MEAN_ANOMALY></meanElements><tleParameters><EPHEMERIS_TYPE>0</EPHEMERIS_TYPE><CLASSIFICATION_TYPE>U</CLASSIFICATION_TYPE><NORAD_CAT_ID>63727</NORAD_CAT_ID><ELEMENT_SET_NO>999</ELEMENT_SET_NO><REV_AT_EPOCH>1549</REV_AT_EPOCH><BSTAR>.46176E-3</BSTAR><MEAN_MOTION_DOT>.15993E-3</MEAN_MOTION_DOT><MEAN_MOTION_DDOT>0</MEAN_MOTION_DDOT></tleParameters></data></segment></body></omm>
<omm id="CCSDS_OMM_VERS" version="2.0">
<header><CREATION_DATE/><ORIGINATOR/></header><body><segment><metadata><OBJECT_NAME>KUIPER-00012</OBJECT_NAME><OBJECT_ID>2025-088E</OBJECT_ID><CENTER_NAME>EARTH</CENTER_NAME><REF_FRAME>TEME</REF_FRAME><TIME_SYSTEM>UTC</TIME_SYSTEM><MEAN_ELEMENT_THEORY>SGP4</MEAN_ELEMENT_THEORY></metadata><data><meanElements><EPOCH>2025-08-04T15:00:25.018848</EPOCH><MEAN_MOTION>15.35891361</MEAN_MOTION><ECCENTRICITY>.0011067</ECCENTRICITY><INCLINATION>51.8581</INCLINATION><RA_OF_ASC_NODE>347.2794</RA_OF_ASC_NODE><ARG_OF_PERICENTER>112.8686</ARG_OF_PERICENTER><MEAN_ANOMALY>247.3470</MEAN_ANOMALY></meanElements><tleParameters><EPHEMERIS_TYPE>0</EPHEMERIS_TYPE><CLASSIFICATION_TYPE>U</CLASSIFICATION_TYPE><NORAD_CAT_ID>63728</NORAD_CAT_ID><ELEMENT_SET_NO>999</ELEMENT_SET_NO><REV_AT_EPOCH>1533</REV_AT_EPOCH><BSTAR>.3915E-3</BSTAR><MEAN_MOTION_DOT>.13547E-3</MEAN_MOTION_DOT><MEAN_MOTION_DDOT>0</MEAN_MOTION_DDOT></tleParameters></data></segment></body></omm>
<omm id="CCSDS_OMM_VERS" version="2.0">
<header><CREATION_DATE/><ORIGINATOR/></header><body><segment><metadata><OBJECT_NAME>KUIPER-00013</OBJECT_NAME><OBJECT_ID>2025-088F</OBJECT_ID><CENTER_NAME>EARTH</CENTER_NAME><REF_FRAME>TEME</REF_FRAME><TIME_SYSTEM>UTC</TIME_SYSTEM><MEAN_ELEMENT_THEORY>SGP4</MEAN_ELEMENT_THEORY></metadata><data><meanElements><EPOCH>2025-08-05T14:00:01.999872</EPOCH><MEAN_MOTION>15.11112278</MEAN_MOTION><ECCENTRICITY>.0006863</ECCENTRICITY><INCLINATION>51.8921</INCLINATION><RA_OF_ASC_NODE>345.8569</RA_OF_ASC_NODE><ARG_OF_PERICENTER>68.2239</ARG_OF_PERICENTER><MEAN_ANOMALY>78.6697</MEAN_ANOMALY></meanElements><tleParameters><EPHEMERIS_TYPE>0</EPHEMERIS_TYPE><CLASSIFICATION_TYPE>U</CLASSIFICATION_TYPE><NORAD_CAT_ID>63729</NORAD_CAT_ID><ELEMENT_SET_NO>999</ELEMENT_SET_NO><REV_AT_EPOCH>1553</REV_AT_EPOCH><BSTAR>-.63233E-1</BSTAR><MEAN_MOTION_DOT>-.987481E-2</MEAN_MOTION_DOT><MEAN_MOTION_DDOT>0</MEAN_MOTION_DDOT></tleParameters></data></segment></body></omm>
<omm id="CCSDS_OMM_VERS" version="2.0">
<header><CREATION_DATE/><ORIGINATOR/></header><body><segment><metadata><OBJECT_NAME>KUIPER-00014</OBJECT_NAME><OBJECT_ID>2025-088G</OBJECT_ID><CENTER_NAME>EARTH</CENTER_NAME><REF_FRAME>TEME</REF_FRAME><TIME_SYSTEM>UTC</TIME_SYSTEM><MEAN_ELEMENT_THEORY>SGP4</MEAN_ELEMENT_THEORY></metadata><data><meanElements><EPOCH>2025-08-05T07:27:07.603488</EPOCH><MEAN_MOTION>15.12155640</MEAN_MOTION><ECCENTRICITY>.0008083</ECCENTRICITY><INCLINATION>51.8803</INCLINATION><RA_OF_ASC_NODE>348.1565</RA_OF_ASC_NODE><ARG_OF_PERICENTER>127.3892</ARG_OF_PERICENTER><MEAN_ANOMALY>232.7821</MEAN_ANOMALY></meanElements><tleParameters><EPHEMERIS_TYPE>0</EPHEMERIS_TYPE><CLASSIFICATION_TYPE>U</CLASSIFICATION_TYPE><NORAD_CAT_ID>63730</NORAD_CAT_ID><ELEMENT_SET_NO>999</ELEMENT_SET_NO><REV_AT_EPOCH>1529</REV_AT_EPOCH><BSTAR>-.14803E-2</BSTAR><MEAN_MOTION_DOT>-.26069E-3</MEAN_MOTION_DOT><MEAN_MOTION_DDOT>0</MEAN_MOTION_DDOT></tleParameters></data></segment></body></omm>
<omm id="CCSDS_OMM_VERS" version="2.0">
<header><CREATION_DATE/><ORIGINATOR/></header><body><segment><metadata><OBJECT_NAME>KUIPER-00015</OBJECT_NAME><OBJECT_ID>2025-088H</OBJECT_ID><CENTER_NAME>EARTH</CENTER_NAME><REF_FRAME>TEME</REF_FRAME><TIME_SYSTEM>UTC</TIME_SYSTEM><MEAN_ELEMENT_THEORY>SGP4</MEAN_ELEMENT_THEORY></metadata><data><meanElements><EPOCH>2025-08-04T20:21:13.197888</EPOCH><MEAN_MOTION>14.81113726</MEAN_MOTION><ECCENTRICITY>.0011565</ECCENTRICITY><INCLINATION>51.9010</INCLINATION><RA_OF_ASC_NODE>0.3319</RA_OF_ASC_NODE><ARG_OF_PERICENTER>84.8900</ARG_OF_PERICENTER><MEAN_ANOMALY>275.3382</MEAN_ANOMALY></meanElements><tleParameters><EPHEMERIS_TYPE>0</EPHEMERIS_TYPE><CLASSIFICATION_TYPE>U</CLASSIFICATION_TYPE><NORAD_CAT_ID>63731</NORAD_CAT_ID><ELEMENT_SET_NO>999</ELEMENT_SET_NO><REV_AT_EPOCH>1554</REV_AT_EPOCH><BSTAR>.74277E-4</BSTAR><MEAN_MOTION_DOT>.356E-5</MEAN_MOTION_DOT><MEAN_MOTION_DDOT>0</MEAN_MOTION_DDOT></tleParameters></data></segment></body></omm>

</ndm>
